[{"OBJECT_NAME":"ICESAT-2","OBJECT_ID":"2018-070A","EPOCH":"2026-03-09T22:54:12.225888","MEAN_MOTION":15.28328617,"ECCENTRICITY":0.00038245,"INCLINATION":91.9993,"RA_OF_ASC_NODE":264.2397,"ARG_OF_PERICENTER":123.8941,"MEAN_ANOMALY":236.2673,"EPHEMERIS_TYPE":0,"CLASSIFICATION_TYPE":"U","NORAD_CAT_ID":43613,"ELEMENT_SET_NO":999,"REV_AT_EPOCH":41730,"BSTAR":0.00014022643,"MEAN_MOTION_DOT":3.87e-5,"MEAN_MOTION_DDOT":0},{"OBJECT_NAME":"STARLINK-31534","OBJECT_ID":"2024-064A","EPOCH":"2026-03-09T07:41:28.687488","MEAN_MOTION":15.27574218,"ECCENTRICITY":9.365e-5,"INCLINATION":43.0026,"RA_OF_ASC_NODE":57.8874,"ARG_OF_PERICENTER":254.4263,"MEAN_ANOMALY":105.6485,"EPHEMERIS_TYPE":0,"CLASSIFICATION_TYPE":"U","NORAD_CAT_ID":59398,"ELEMENT_SET_NO":999,"REV_AT_EPOCH":10911,"BSTAR":-1.7247775e-5,"MEAN_MOTION_DOT":-7.36e-6,"MEAN_MOTION_DDOT":0}]
